[{"OBJECT_NAME":"EDISON-1","OBJECT_ID":"2025-009B","EPOCH":"2026-03-09T19:16:13.822464","MEAN_MOTION":15.29042904,"ECCENTRICITY":0.00043285,"INCLINATION":97.4042,"RA_OF_ASC_NODE":151.6286,"ARG_OF_PERICENTER":306.4185,"MEAN_ANOMALY":53.6655,"EPHEMERIS_TYPE":0,"CLASSIFICATION_TYPE":"U","NORAD_CAT_ID":62610,"ELEMENT_SET_NO":999,"REV_AT_EPOCH":6375,"BSTAR":0.00052814963,"MEAN_MOTION_DOT":0.00014835,"MEAN_MOTION_DDOT":0},{"OBJECT_NAME":"STARLINK-36515","OBJECT_ID":"2026-005AC","EPOCH":"2026-03-08T13:42:09.743040","MEAN_MOTION":15.2759908,"ECCENTRICITY":0.00016148,"INCLINATION":42.9999,"RA_OF_ASC_NODE":244.4472,"ARG_OF_PERICENTER":259.2943,"MEAN_ANOMALY":100.7727,"EPHEMERIS_TYPE":0,"CLASSIFICATION_TYPE":"U","NORAD_CAT_ID":67430,"ELEMENT_SET_NO":999,"REV_AT_EPOCH":851,"BSTAR":0.0014270247,"MEAN_MOTION_DOT":0.00039239,"MEAN_MOTION_DDOT":0}]
